[{"OBJECT_NAME":"TRANSPORTER-15 OBJECT CZ","OBJECT_ID":"2025-276CZ","EPOCH":"2026-03-09T17:32:17.005632","MEAN_MOTION":15.20454432,"ECCENTRICITY":6.906e-5,"INCLINATION":97.4256,"RA_OF_ASC_NODE":144.1611,"ARG_OF_PERICENTER":127.7851,"MEAN_ANOMALY":232.3447,"EPHEMERIS_TYPE":0,"CLASSIFICATION_TYPE":"U","NORAD_CAT_ID":66761,"ELEMENT_SET_NO":999,"REV_AT_EPOCH":1533,"BSTAR":0.0005331226,"MEAN_MOTION_DOT":0.00011576,"MEAN_MOTION_DDOT":0},{"OBJECT_NAME":"LEMUR-2-LAILA","OBJECT_ID":"2025-276DQ","EPOCH":"2026-03-09T17:30:24.523200","MEAN_MOTION":15.2007121,"ECCENTRICITY":0.00022825,"INCLINATION":97.4243,"RA_OF_ASC_NODE":144.1425,"ARG_OF_PERICENTER":132.0154,"MEAN_ANOMALY":228.1276,"EPHEMERIS_TYPE":0,"CLASSIFICATION_TYPE":"U","NORAD_CAT_ID":66776,"ELEMENT_SET_NO":999,"REV_AT_EPOCH":1533,"BSTAR":0.00035559412,"MEAN_MOTION_DOT":7.609e-5,"MEAN_MOTION_DDOT":0}]
